[{"OBJECT_NAME":"KUIPER-00188","OBJECT_ID":"2025-301K","EPOCH":"2026-03-09T06:53:56.566464","MEAN_MOTION":15.37911807,"ECCENTRICITY":0.00099925,"INCLINATION":51.8689,"RA_OF_ASC_NODE":67.2703,"ARG_OF_PERICENTER":46.7731,"MEAN_ANOMALY":313.4089,"EPHEMERIS_TYPE":0,"CLASSIFICATION_TYPE":"U","NORAD_CAT_ID":67142,"ELEMENT_SET_NO":999,"REV_AT_EPOCH":1367,"BSTAR":0.00051877228,"MEAN_MOTION_DOT":0.00019325,"MEAN_MOTION_DDOT":0},{"OBJECT_NAME":"SPACEMOBILE-003 DEB","OBJECT_ID":"2024-163H","EPOCH":"2026-03-09T06:41:58.685280","MEAN_MOTION":15.36819258,"ECCENTRICITY":0.00083408,"INCLINATION":52.9732,"RA_OF_ASC_NODE":23.5908,"ARG_OF_PERICENTER":178.9597,"MEAN_ANOMALY":181.1423,"EPHEMERIS_TYPE":0,"CLASSIFICATION_TYPE":"U","NORAD_CAT_ID":62371,"ELEMENT_SET_NO":999,"REV_AT_EPOCH":7650,"BSTAR":0.00066898372,"MEAN_MOTION_DOT":0.00024141,"MEAN_MOTION_DDOT":0}]
